CCSDS_OMM_VERS = 2.0
CREATION_DATE  = 
ORIGINATOR     = 

OBJECT_NAME    = STARLINK-36964
OBJECT_ID      = 2026-050T
CENTER_NAME    = EARTH
REF_FRAME      = TEME
TIME_SYSTEM    = UTC
MEAN_ELEMENT_THEORY = SGP/SGP4

EPOCH          = 2026-04-03T15:32:56.902848
MEAN_MOTION    = 15.80869893
ECCENTRICITY   = .00012769
INCLINATION    = 53.1576
RA_OF_ASC_NODE = 156.6116
ARG_OF_PERICENTER = 64.3691
MEAN_ANOMALY   = 295.7464

EPHEMERIS_TYPE = 0
CLASSIFICATION_TYPE = U
NORAD_CAT_ID   = 68184
ELEMENT_SET_NO = 999
REV_AT_EPOCH   = 442
BSTAR          = .13721648E-2
MEAN_MOTION_DOT = .279015E-2
MEAN_MOTION_DDOT = 0

CCSDS_OMM_VERS = 2.0
CREATION_DATE  = 
ORIGINATOR     = 

OBJECT_NAME    = STARLINK-37061
OBJECT_ID      = 2026-050U
CENTER_NAME    = EARTH
REF_FRAME      = TEME
TIME_SYSTEM    = UTC
MEAN_ELEMENT_THEORY = SGP/SGP4

EPOCH          = 2026-04-03T12:29:47.194368
MEAN_MOTION    = 15.80858221
ECCENTRICITY   = .0001261
INCLINATION    = 53.1577
RA_OF_ASC_NODE = 157.2407
ARG_OF_PERICENTER = 62.2490
MEAN_ANOMALY   = 297.8661

EPHEMERIS_TYPE = 0
CLASSIFICATION_TYPE = U
NORAD_CAT_ID   = 68185
ELEMENT_SET_NO = 999
REV_AT_EPOCH   = 440
BSTAR          = .11085E-2
MEAN_MOTION_DOT = .223695E-2
MEAN_MOTION_DDOT = 0

CCSDS_OMM_VERS = 2.0
CREATION_DATE  = 
ORIGINATOR     = 

OBJECT_NAME    = STARLINK-37079
OBJECT_ID      = 2026-050V
CENTER_NAME    = EARTH
REF_FRAME      = TEME
TIME_SYSTEM    = UTC
MEAN_ELEMENT_THEORY = SGP/SGP4

EPOCH          = 2026-04-03T12:28:42.632832
MEAN_MOTION    = 15.80793272
ECCENTRICITY   = .0001136
INCLINATION    = 53.1575
RA_OF_ASC_NODE = 157.2358
ARG_OF_PERICENTER = 74.7271
MEAN_ANOMALY   = 285.3878

EPHEMERIS_TYPE = 0
CLASSIFICATION_TYPE = U
NORAD_CAT_ID   = 68186
ELEMENT_SET_NO = 999
REV_AT_EPOCH   = 440
BSTAR          = .46237E-3
MEAN_MOTION_DOT = .9119E-3
MEAN_MOTION_DDOT = 0

CCSDS_OMM_VERS = 2.0
CREATION_DATE  = 
ORIGINATOR     = 

OBJECT_NAME    = STARLINK-37006
OBJECT_ID      = 2026-050W
CENTER_NAME    = EARTH
REF_FRAME      = TEME
TIME_SYSTEM    = UTC
MEAN_ELEMENT_THEORY = SGP/SGP4

EPOCH          = 2026-04-03T15:29:42.512352
MEAN_MOTION    = 15.80884303
ECCENTRICITY   = .00012835
INCLINATION    = 53.1575
RA_OF_ASC_NODE = 156.5971
ARG_OF_PERICENTER = 52.2343
MEAN_ANOMALY   = 307.8796

EPHEMERIS_TYPE = 0
CLASSIFICATION_TYPE = U
NORAD_CAT_ID   = 68187
ELEMENT_SET_NO = 999
REV_AT_EPOCH   = 442
BSTAR          = .15562533E-2
MEAN_MOTION_DOT = .318212E-2
MEAN_MOTION_DDOT = 0

CCSDS_OMM_VERS = 2.0
CREATION_DATE  = 
ORIGINATOR     = 

OBJECT_NAME    = STARLINK-36340
OBJECT_ID      = 2026-050X
CENTER_NAME    = EARTH
REF_FRAME      = TEME
TIME_SYSTEM    = UTC
MEAN_ELEMENT_THEORY = SGP/SGP4

EPOCH          = 2026-04-03T13:57:35.201952
MEAN_MOTION    = 15.80853310
ECCENTRICITY   = .0001625
INCLINATION    = 53.1577
RA_OF_ASC_NODE = 156.9088
ARG_OF_PERICENTER = 70.5339
MEAN_ANOMALY   = 289.5859

EPHEMERIS_TYPE = 0
CLASSIFICATION_TYPE = U
NORAD_CAT_ID   = 68188
ELEMENT_SET_NO = 999
REV_AT_EPOCH   = 431
BSTAR          = .11038E-2
MEAN_MOTION_DOT = .222666E-2
MEAN_MOTION_DDOT = 0

CCSDS_OMM_VERS = 2.0
CREATION_DATE  = 
ORIGINATOR     = 

OBJECT_NAME    = STARLINK-36305
OBJECT_ID      = 2026-050Y
CENTER_NAME    = EARTH
REF_FRAME      = TEME
TIME_SYSTEM    = UTC
MEAN_ELEMENT_THEORY = SGP/SGP4

EPOCH          = 2026-04-03T13:56:30.609312
MEAN_MOTION    = 15.80826752
ECCENTRICITY   = .0001606
INCLINATION    = 53.1576
RA_OF_ASC_NODE = 156.9038
ARG_OF_PERICENTER = 58.0329
MEAN_ANOMALY   = 302.0849

EPHEMERIS_TYPE = 0
CLASSIFICATION_TYPE = U
NORAD_CAT_ID   = 68189
ELEMENT_SET_NO = 999
REV_AT_EPOCH   = 431
BSTAR          = .87846E-3
MEAN_MOTION_DOT = .175882E-2
MEAN_MOTION_DDOT = 0

CCSDS_OMM_VERS = 2.0
CREATION_DATE  = 
ORIGINATOR     = 

OBJECT_NAME    = STARLINK-37071
OBJECT_ID      = 2026-050Z
CENTER_NAME    = EARTH
REF_FRAME      = TEME
TIME_SYSTEM    = UTC
MEAN_ELEMENT_THEORY = SGP/SGP4

EPOCH          = 2026-04-03T13:54:20.656800
MEAN_MOTION    = 15.80860259
ECCENTRICITY   = .0001309
INCLINATION    = 53.1574
RA_OF_ASC_NODE = 156.8935
ARG_OF_PERICENTER = 81.3403
MEAN_ANOMALY   = 278.7767

EPHEMERIS_TYPE = 0
CLASSIFICATION_TYPE = U
NORAD_CAT_ID   = 68190
ELEMENT_SET_NO = 999
REV_AT_EPOCH   = 441
BSTAR          = .14421E-2
MEAN_MOTION_DOT = .293642E-2
MEAN_MOTION_DDOT = 0

CCSDS_OMM_VERS = 2.0
CREATION_DATE  = 
ORIGINATOR     = 

OBJECT_NAME    = STARLINK-37091
OBJECT_ID      = 2026-050AA
CENTER_NAME    = EARTH
REF_FRAME      = TEME
TIME_SYSTEM    = UTC
MEAN_ELEMENT_THEORY = SGP/SGP4

EPOCH          = 2026-04-03T13:53:15.793728
MEAN_MOTION    = 15.80847448
ECCENTRICITY   = .0001413
INCLINATION    = 53.1575
RA_OF_ASC_NODE = 156.8884
ARG_OF_PERICENTER = 67.3211
MEAN_ANOMALY   = 292.7961

EPHEMERIS_TYPE = 0
CLASSIFICATION_TYPE = U
NORAD_CAT_ID   = 68191
ELEMENT_SET_NO = 999
REV_AT_EPOCH   = 441
BSTAR          = .89448E-3
MEAN_MOTION_DOT = .179345E-2
MEAN_MOTION_DDOT = 0

CCSDS_OMM_VERS = 2.0
CREATION_DATE  = 
ORIGINATOR     = 

OBJECT_NAME    = STARLINK-37098
OBJECT_ID      = 2026-050AB
CENTER_NAME    = EARTH
REF_FRAME      = TEME
TIME_SYSTEM    = UTC
MEAN_ELEMENT_THEORY = SGP/SGP4

EPOCH          = 2026-04-03T12:21:08.655264
MEAN_MOTION    = 15.80842313
ECCENTRICITY   = .0001868
INCLINATION    = 53.1573
RA_OF_ASC_NODE = 157.2001
ARG_OF_PERICENTER = 52.3718
MEAN_ANOMALY   = 307.7474

EPHEMERIS_TYPE = 0
CLASSIFICATION_TYPE = U
NORAD_CAT_ID   = 68192
ELEMENT_SET_NO = 999
REV_AT_EPOCH   = 440
BSTAR          = .10781E-2
MEAN_MOTION_DOT = .217217E-2
MEAN_MOTION_DDOT = 0

CCSDS_OMM_VERS = 2.0
CREATION_DATE  = 
ORIGINATOR     = 

OBJECT_NAME    = STARLINK-37090
OBJECT_ID      = 2026-050AC
CENTER_NAME    = EARTH
REF_FRAME      = TEME
TIME_SYSTEM    = UTC
MEAN_ELEMENT_THEORY = SGP/SGP4

EPOCH          = 2026-04-03T13:50:01.653792
MEAN_MOTION    = 15.80808365
ECCENTRICITY   = .0001548
INCLINATION    = 53.1573
RA_OF_ASC_NODE = 156.8730
ARG_OF_PERICENTER = 63.2657
MEAN_ANOMALY   = 296.8524

EPHEMERIS_TYPE = 0
CLASSIFICATION_TYPE = U
NORAD_CAT_ID   = 68193
ELEMENT_SET_NO = 999
REV_AT_EPOCH   = 441
BSTAR          = .72546E-3
MEAN_MOTION_DOT = .144473E-2
MEAN_MOTION_DDOT = 0

CCSDS_OMM_VERS = 2.0
CREATION_DATE  = 
ORIGINATOR     = 

OBJECT_NAME    = STARLINK-37093
OBJECT_ID      = 2026-050AD
CENTER_NAME    = EARTH
REF_FRAME      = TEME
TIME_SYSTEM    = UTC
MEAN_ELEMENT_THEORY = SGP/SGP4

EPOCH          = 2026-04-03T13:55:25.417920
MEAN_MOTION    = 15.80888194
ECCENTRICITY   = .0001532
INCLINATION    = 53.1573
RA_OF_ASC_NODE = 156.8979
ARG_OF_PERICENTER = 58.6773
MEAN_ANOMALY   = 301.4400

EPHEMERIS_TYPE = 0
CLASSIFICATION_TYPE = U
NORAD_CAT_ID   = 68194
ELEMENT_SET_NO = 999
REV_AT_EPOCH   = 441
BSTAR          = .15794E-2
MEAN_MOTION_DOT = .323191E-2
MEAN_MOTION_DDOT = 0

CCSDS_OMM_VERS = 2.0
CREATION_DATE  = 
ORIGINATOR     = 

OBJECT_NAME    = STARLINK-37058
OBJECT_ID      = 2026-050AE
CENTER_NAME    = EARTH
REF_FRAME      = TEME
TIME_SYSTEM    = UTC
MEAN_ELEMENT_THEORY = SGP/SGP4

EPOCH          = 2026-04-03T13:51:06.491808
MEAN_MOTION    = 15.80822991
ECCENTRICITY   = .0001282
INCLINATION    = 53.1574
RA_OF_ASC_NODE = 156.8781
ARG_OF_PERICENTER = 85.4241
MEAN_ANOMALY   = 274.6928

EPHEMERIS_TYPE = 0
CLASSIFICATION_TYPE = U
NORAD_CAT_ID   = 68195
ELEMENT_SET_NO = 999
REV_AT_EPOCH   = 285
BSTAR          = .79034E-3
MEAN_MOTION_DOT = .157806E-2
MEAN_MOTION_DDOT = 0

