STARLINK-36964          
1 68184U 26050T   26093.64788082  .00279015  00000+0  13722-2 0  9993
2 68184  53.1576 156.6116 0001276  64.3691 295.7464 15.80869893  4421
STARLINK-37061          
1 68185U 26050U   26093.52068512  .00223695  00000+0  11085-2 0  9993
2 68185  53.1577 157.2407 0001261  62.2490 297.8661 15.80858221  4404
STARLINK-37079          
1 68186U 26050V   26093.51993788  .00091190  00000+0  46237-3 0  9996
2 68186  53.1575 157.2358 0001136  74.7271 285.3878 15.80793272  4400
STARLINK-37006          
1 68187U 26050W   26093.64563093  .00318212  00000+0  15563-2 0  9997
2 68187  53.1575 156.5971 0001283  52.2343 307.8796 15.80884303  4425
STARLINK-36340          
1 68188U 26050X   26093.58165743  .00222666  00000+0  11038-2 0  9991
2 68188  53.1577 156.9088 0001625  70.5339 289.5859 15.80853310  4317
STARLINK-36305          
1 68189U 26050Y   26093.58090983  .00175882  00000+0  87846-3 0  9993
2 68189  53.1576 156.9038 0001606  58.0329 302.0849 15.80826752  4311
STARLINK-37071          
1 68190U 26050Z   26093.57940575  .00293642  00000+0  14421-2 0  9998
2 68190  53.1574 156.8935 0001309  81.3403 278.7767 15.80860259  4417
STARLINK-37091          
1 68191U 26050AA  26093.57865502  .00179345  00000+0  89448-3 0  9990
2 68191  53.1575 156.8884 0001413  67.3211 292.7961 15.80847448  4416
STARLINK-37098          
1 68192U 26050AB  26093.51468351  .00217217  00000+0  10781-2 0  9990
2 68192  53.1573 157.2001 0001868  52.3718 307.7474 15.80842313  4402
STARLINK-37090          
1 68193U 26050AC  26093.57640803  .00144473  00000+0  72546-3 0  9992
2 68193  53.1573 156.8730 0001548  63.2657 296.8524 15.80808365  4419
STARLINK-37093          
1 68194U 26050AD  26093.58015530  .00323191  00000+0  15794-2 0  9994
2 68194  53.1573 156.8979 0001532  58.6773 301.4400 15.80888194  4419
STARLINK-37058          
1 68195U 26050AE  26093.57715847  .00157806  00000+0  79034-3 0  9998
2 68195  53.1574 156.8781 0001282  85.4241 274.6928 15.80822991  2857
